{"fetched_at":"2026-04-04T02:03:33Z","count":15623,"tles":[{"name":"STARLINK-37157","line1":"1 68394U 26063Q   26092.75002315 -.01819945  99474-3 -36537-2 0  9990","line2":"2 68394  97.2820 233.5526 0001617  66.7918 107.9863 15.99863067  2323","category":"Starlink"}]}